{"type":"FeatureCollection","features":[{"type":"Feature","id":"radio_servicio_aysam.1","geometry":{"type":"MultiPolygon","coordinates":[[[[-68.92206571,-33.04570011],[-68.92539422,-33.04659592],[-68.92549566,-33.04670643],[-68.9275157,-33.04730513],[-68.92827409,-33.0471962],[-68.92843487,-33.04719629],[-68.92862001,-33.04780192],[-68.93360104,-33.04860398],[-68.93392835,-33.04883567],[-68.93509632,-33.05042161],[-68.93526228,-33.05082819],[-68.93531988,-33.05094789],[-68.93540694,-33.05102699],[-68.93593939,-33.05124379],[-68.9359849,-33.05120341],[-68.93594414,-33.05081266],[-68.93661934,-33.0505624],[-68.93752695,-33.05052475],[-68.93763798,-33.05037412],[-68.93822773,-33.05031635],[-68.93832655,-33.05053677],[-68.93884094,-33.0510391],[-68.93892518,-33.05100979],[-68.94138845,-33.05099104],[-68.94153104,-33.05091237],[-68.94383635,-33.05119786],[-68.94420038,-33.05048337],[-68.94422777,-33.05049998],[-68.94431131,-33.05054793],[-68.94439128,-33.05059134],[-68.94447874,-33.05063256],[-68.94457765,-33.05066804],[-68.94464383,-33.05068695],[-68.94474558,-33.0507091],[-68.94477869,-33.05071065],[-68.94486876,-33.05071675],[-68.94496519,-33.05072639],[-68.94505708,-33.05073859],[-68.9452082,-33.05076522],[-68.94526687,-33.05077835],[-68.94549446,-33.0508256],[-68.94563057,-33.05085001],[-68.94576516,-33.05087135],[-68.94596257,-33.05089051],[-68.94627791,-33.0509015],[-68.94671987,-33.05090861],[-68.94706129,-33.0509291],[-68.94761157,-33.05098806],[-68.94800191,-33.05104973],[-68.94853067,-33.05116739],[-68.94881834,-33.05128382],[-68.94904049,-33.05140802],[-68.94936389,-33.0515554],[-68.94960134,-33.05165154],[-68.94984271,-33.05173538],[-68.95011258,-33.05177985],[-68.95055283,-33.05179153],[-68.9507591,-33.05177253],[-68.9509892,-33.05173063],[-68.9510874,-33.05171119],[-68.95110645,-33.05160925],[-68.95118373,-33.05156123],[-68.95140517,-33.05148832],[-68.95160858,-33.05139716],[-68.95175373,-33.05131389],[-68.95233448,-33.05085328],[-68.95314342,-33.05019923],[-68.95374621,-33.04966612],[-68.95379882,-33.04956012],[-68.9539553,-33.0491024],[-68.95403651,-33.04902985],[-68.95456929,-33.0489575],[-68.95458406,-33.04901139],[-68.95458259,-33.04907978],[-68.95455085,-33.04914838],[-68.95457349,-33.04920641],[-68.95462074,-33.04926817],[-68.95469409,-33.04933904],[-68.95485404,-33.04930795],[-68.95496331,-33.0493009],[-68.95521974,-33.04933902],[-68.95557314,-33.04953423],[-68.9557651,-33.04964448],[-68.95585566,-33.04965525],[-68.95592999,-33.04971742],[-68.95596272,-33.0497139],[-68.95643054,-33.04969957],[-68.95659665,-33.04971552],[-68.95673668,-33.04972235],[-68.95700689,-33.04967549],[-68.95720573,-33.04968791],[-68.95774419,-33.04975917],[-68.95799669,-33.0498321],[-68.95948028,-33.04982794],[-68.96089361,-33.04859376],[-68.96109236,-33.04859382],[-68.9618785,-33.05039798],[-68.96546066,-33.05001347],[-68.96562559,-33.05017519],[-68.96667835,-33.05003785],[-68.97091527,-33.04947834],[-68.97395687,-33.04907558],[-68.97716969,-33.04712093],[-68.97834506,-33.04615],[-68.97769955,-33.04546054],[-68.97919027,-33.04522067],[-68.97934135,-33.0453904],[-68.97965774,-33.04541829],[-68.98010876,-33.04533006],[-68.98029258,-33.04532483],[-68.98054673,-33.045253],[-68.98066608,-33.04502978],[-68.98071193,-33.04482092],[-68.98090174,-33.04468507],[-68.98128218,-33.04460483],[-68.98193529,-33.04437517],[-68.98179158,-33.04352762],[-68.98191147,-33.04339811],[-68.98435283,-33.04317416],[-68.98410774,-33.04358794],[-68.98656532,-33.04330171],[-68.98671265,-33.04272013],[-68.98692592,-33.04266456],[-68.98728134,-33.04266887],[-68.98807385,-33.04107005],[-68.98826843,-33.04066981],[-68.98585533,-33.04028875],[-68.98528703,-33.04013239],[-68.9851391,-33.0400898],[-68.98481215,-33.0399878],[-68.98423619,-33.03982996],[-68.9823533,-33.03920425],[-68.9818079,-33.03903346],[-68.98023546,-33.03845935],[-68.97982163,-33.03821583],[-68.97920367,-33.03776863],[-68.97885761,-33.03746595],[-68.97800354,-33.0371133],[-68.97794885,-33.0368961],[-68.97703778,-33.03594783],[-68.97472534,-33.03580756],[-68.97316164,-33.03231072],[-68.9743832,-33.03193274],[-68.97415428,-33.03016623],[-68.97245829,-33.03070744],[-68.97009847,-33.02525458],[-68.96992521,-33.02558652],[-68.96739007,-33.02458714],[-68.96114154,-33.02460643],[-68.95887509,-33.02458621],[-68.95861681,-33.02471307],[-68.95739371,-33.02535578],[-68.95684309,-33.02518514],[-68.9558662,-33.02386447],[-68.95434288,-33.02416099],[-68.95385128,-33.02403837],[-68.95363487,-33.02402941],[-68.9532513,-33.02386546],[-68.95306487,-33.02373175],[-68.95280187,-33.02361565],[-68.95201591,-33.02351608],[-68.95111067,-33.02323224],[-68.95057538,-33.02322211],[-68.94971508,-33.02295642],[-68.94796962,-33.02240948],[-68.94760167,-33.02207666],[-68.94692193,-33.02125218],[-68.94859647,-33.01738795],[-68.94079637,-33.0139862],[-68.9381342,-33.01239452],[-68.93243194,-33.00997295],[-68.9315585,-33.0096885],[-68.93119318,-33.0096314],[-68.93060763,-33.00944452],[-68.93013331,-33.00932767],[-68.92981487,-33.00928214],[-68.92953576,-33.0106409],[-68.92913536,-33.01123789],[-68.92910903,-33.01136921],[-68.92959643,-33.0114528],[-68.92960185,-33.01161103],[-68.93025538,-33.01282062],[-68.92888352,-33.01403645],[-68.92879543,-33.01417554],[-68.92978006,-33.01466513],[-68.92987933,-33.01481962],[-68.93035093,-33.01521479],[-68.93058624,-33.01553151],[-68.93077875,-33.01567833],[-68.93044065,-33.01613939],[-68.93027759,-33.01593397],[-68.92971468,-33.01656542],[-68.92859018,-33.01616993],[-68.92839636,-33.01637983],[-68.92817294,-33.01629412],[-68.92770571,-33.0162425],[-68.92736047,-33.01607113],[-68.9271168,-33.01591695],[-68.92679184,-33.01579694],[-68.92571291,-33.01564367],[-68.9251742,-33.01607719],[-68.92587387,-33.01977184],[-68.92666882,-33.02469858],[-68.92774151,-33.0295818],[-68.92814176,-33.03241366],[-68.92835816,-33.0335246],[-68.92850002,-33.03418999],[-68.92842249,-33.03422519],[-68.92733931,-33.03471696],[-68.92714201,-33.03479709],[-68.92623771,-33.03493824],[-68.92453424,-33.03502213],[-68.922845,-33.03522637],[-68.9237232,-33.03945852],[-68.92492454,-33.04524727],[-68.92363751,-33.04529621],[-68.92206571,-33.04570011]]]]},"geometry_name":"the_geom","properties":{"fid":1,"id":1,"featid1":2,"operador":"AYSAM"}},{"type":"Feature","id":"radio_servicio_aysam.2","geometry":{"type":"MultiPolygon","coordinates":[[[[-68.90335134,-33.00557017],[-68.90366216,-33.00071275],[-68.90373477,-33.00056286],[-68.90356685,-33.00029132],[-68.90330585,-33.00020555],[-68.90323077,-33.00007087],[-68.90297488,-32.99971487],[-68.90287933,-32.99951859],[-68.90275429,-32.9990792],[-68.90267282,-32.99892225],[-68.90291556,-32.99870634],[-68.90307155,-32.99852067],[-68.90300184,-32.99812817],[-68.90308973,-32.9980796],[-68.90347324,-32.99810257],[-68.90394039,-32.99805214],[-68.90344673,-32.99749513],[-68.90309065,-32.99718071],[-68.90161007,-32.99611909],[-68.90155298,-32.99569003],[-68.9012844,-32.99522471],[-68.90117247,-32.99503078],[-68.90050723,-32.9942861],[-68.89966555,-32.99403368],[-68.89854862,-32.99428903],[-68.89718149,-32.99347045],[-68.89685957,-32.99334512],[-68.89597704,-32.99281835],[-68.8959862,-32.9924897],[-68.8942779,-32.99068978],[-68.89425685,-32.99057606],[-68.88939357,-32.98549441],[-68.88845203,-32.98451119],[-68.88804501,-32.9842066],[-68.8876532,-32.98380302],[-68.88691668,-32.98307632],[-68.88468674,-32.98060409],[-68.88279354,-32.97857774],[-68.88259234,-32.97855744],[-68.8805019,-32.97629856],[-68.88065329,-32.97628689],[-68.87721385,-32.97267377],[-68.87624018,-32.97160847],[-68.87556365,-32.97087148],[-68.87549175,-32.97088611],[-68.87496602,-32.97026009],[-68.87488532,-32.9700638],[-68.87373843,-32.96861283],[-68.8732633,-32.96785973],[-68.87288254,-32.96706829],[-68.87241637,-32.96619093],[-68.87236951,-32.96605013],[-68.87205699,-32.96549113],[-68.87192288,-32.96525224],[-68.87180963,-32.96505782],[-68.8717463,-32.96494674],[-68.87159029,-32.96470375],[-68.8715035,-32.96458752],[-68.87149997,-32.96458851],[-68.87133101,-32.96441215],[-68.87132067,-32.96438734],[-68.87132101,-32.96437319],[-68.8713346,-32.96437284],[-68.87126704,-32.96434265],[-68.87114198,-32.96428274],[-68.87072287,-32.96401127],[-68.87050877,-32.96383991],[-68.87037412,-32.96375356],[-68.87017464,-32.96364262],[-68.87004398,-32.9635674],[-68.86958743,-32.96331146],[-68.86904711,-32.96306167],[-68.86884636,-32.96294721],[-68.86821688,-32.96255514],[-68.86715447,-32.9619609],[-68.86626469,-32.96146311],[-68.8658852,-32.96125081],[-68.86558547,-32.96112795],[-68.86534056,-32.96097304],[-68.86516531,-32.96086294],[-68.86473823,-32.96062944],[-68.86441808,-32.9604544],[-68.86399489,-32.96022301],[-68.86282705,-32.95957892],[-68.86254417,-32.95943119],[-68.86147349,-32.95877539],[-68.8588676,-32.95872055],[-68.85886768,-32.958674],[-68.85833495,-32.95866411],[-68.85833318,-32.95871355],[-68.85815947,-32.95871335],[-68.85761487,-32.95870054],[-68.85761697,-32.95865348],[-68.85691021,-32.95865257],[-68.85480017,-32.95866727],[-68.85438351,-32.95871692],[-68.85409344,-32.95871658],[-68.85329436,-32.95879157],[-68.85344514,-32.95925899],[-68.85360762,-32.95925035],[-68.8543753,-32.96032542],[-68.85478793,-32.96144461],[-68.85492122,-32.96143124],[-68.85502973,-32.96168374],[-68.85509494,-32.96183548],[-68.85516011,-32.96198714],[-68.85524719,-32.96218038],[-68.85531967,-32.9623488],[-68.85520991,-32.96234426],[-68.8551438,-32.96234914],[-68.85524109,-32.96250885],[-68.8553998,-32.962535],[-68.8558795,-32.9636495],[-68.85604033,-32.96387231],[-68.85604512,-32.96388449],[-68.85655655,-32.96518295],[-68.85639029,-32.96520846],[-68.85715243,-32.96731674],[-68.8574912,-32.96844306],[-68.85825873,-32.9700922],[-68.85845828,-32.97113189],[-68.8584778,-32.97157121],[-68.85827931,-32.97240991],[-68.85887354,-32.97361946],[-68.85899075,-32.97386672],[-68.85932996,-32.97492498],[-68.85955912,-32.97559013],[-68.85962844,-32.97558724],[-68.85985239,-32.97641596],[-68.86032068,-32.9781883],[-68.86073861,-32.97810265],[-68.86084768,-32.97849688],[-68.86096481,-32.97891466],[-68.86101311,-32.97908721],[-68.86102995,-32.97920039],[-68.86109478,-32.97933409],[-68.86112077,-32.97947613],[-68.86107197,-32.97948383],[-68.86111081,-32.97975736],[-68.86115233,-32.97981899],[-68.86135344,-32.98002966],[-68.86140981,-32.98010411],[-68.86144136,-32.98017818],[-68.86154592,-32.98042806],[-68.86168448,-32.9807612],[-68.86196158,-32.98089416],[-68.86211546,-32.98122768],[-68.86210599,-32.98131161],[-68.86204676,-32.98135622],[-68.8620182,-32.98140575],[-68.86201428,-32.98149706],[-68.86202731,-32.98158823],[-68.86207384,-32.9817286],[-68.86260392,-32.98300347],[-68.86345672,-32.98508756],[-68.86347204,-32.98517782],[-68.86342748,-32.98544571],[-68.86343061,-32.98551493],[-68.86362715,-32.98601111],[-68.86383602,-32.98676603],[-68.86395728,-32.98712837],[-68.8640256,-32.98722188],[-68.86421456,-32.98753849],[-68.8644185,-32.98792072],[-68.86456352,-32.98824326],[-68.86468454,-32.98874885],[-68.86470126,-32.98889096],[-68.86477344,-32.98906291],[-68.86599065,-32.98908208],[-68.86597782,-32.98810641],[-68.86909571,-32.98798927],[-68.86935142,-32.98915792],[-68.86803562,-32.98919267],[-68.86837517,-32.99167433],[-68.86531382,-32.99346133],[-68.86553603,-32.9946049],[-68.86585008,-32.99565686],[-68.86591474,-32.99577857],[-68.86635534,-32.99671922],[-68.86643019,-32.99682669],[-68.86662237,-32.99724491],[-68.86676905,-32.99779285],[-68.86699268,-32.99861793],[-68.86725494,-32.99862019],[-68.86776765,-33.0004478],[-68.86767616,-33.00043513],[-68.86785225,-33.00121531],[-68.86800657,-33.00338949],[-68.86844918,-33.00459773],[-68.86867793,-33.00504374],[-68.86882453,-33.00519927],[-68.86912641,-33.00528257],[-68.87415547,-33.00523795],[-68.87437095,-33.00511641],[-68.87416753,-33.00443424],[-68.87413104,-33.00422066],[-68.87391956,-33.00314881],[-68.87385604,-33.00316587],[-68.87322167,-33.00019702],[-68.87614549,-33.0000242],[-68.87616458,-33.00016361],[-68.87660825,-33.00017388],[-68.88185106,-33.0002565],[-68.88253806,-33.00031124],[-68.88234971,-33.00274261],[-68.88240277,-33.00526369],[-68.88647314,-33.00528901],[-68.88647338,-33.005267],[-68.88679216,-33.00527487],[-68.88703256,-33.00531395],[-68.88706078,-33.00534066],[-68.89029746,-33.00534193],[-68.89304656,-33.00537998],[-68.8975338,-33.00553472],[-68.89778747,-33.00540076],[-68.90335134,-33.00557017]]]]},"geometry_name":"the_geom","properties":{"fid":2,"id":2,"featid1":1,"operador":"AYSAM"}}],"totalFeatures":2,"numberMatched":2,"numberReturned":2,"timeStamp":"2026-09-28T00:03:01.341Z","crs":{"type":"name","properties":{"name":"urn:ogc:def:crs:EPSG::4326"}}}