{"type": "FeatureCollection", "features": [{"type": "Feature", "properties": {"idrenabap": "4372", "nombreBarr": "Villa Costa Canal", "provincia": "MENDOZA", "departamento": "LUJAN DE CUYO", "localidad": ""}, "geometry": {"type": "Polygon", "coordinates": [[[-68.887125, -33.214962], [-68.890127, -33.213187], [-68.889972, -33.212935], [-68.889862, -33.212935], [-68.889449, -33.213181], [-68.889197, -33.213174], [-68.888959, -33.213187], [-68.8887, -33.213219], [-68.88759, -33.21362], [-68.887364, -33.213381], [-68.886499, -33.213697], [-68.887125, -33.214962]]]}}, {"type": "Feature", "properties": {"idrenabap": "4377", "nombreBarr": "Juana de Azurduy", "provincia": "MENDOZA", "departamento": "LUJAN DE CUYO", "localidad": ""}, "geometry": {"type": "Polygon", "coordinates": [[[-68.885843, -33.210287], [-68.883293, -33.205325], [-68.88254, -33.205665], [-68.885017, -33.210595], [-68.885843, -33.210287]]]}}, {"type": "Feature", "properties": {"idrenabap": "4379", "nombreBarr": "El Encuentro", "provincia": "MENDOZA", "departamento": "LUJAN DE CUYO", "localidad": ""}, "geometry": {"type": "Polygon", "coordinates": [[[-68.926282, -33.073204], [-68.926215, -33.072792], [-68.924799, -33.07296], [-68.924648, -33.071919], [-68.924145, -33.072003], [-68.924243, -33.073423], [-68.926282, -33.073204]]]}}, {"type": "Feature", "properties": {"idrenabap": "4376", "nombreBarr": "Cuadro Estación Drummond", "provincia": "MENDOZA", "departamento": "LUJAN DE CUYO", "localidad": ""}, "geometry": {"type": "Polygon", "coordinates": [[[-68.870931, -33.011816], [-68.870676, -33.01161], [-68.870423, -33.011313], [-68.870154, -33.010927], [-68.869956, -33.010987], [-68.87007, -33.011192], [-68.870192, -33.011265], [-68.870404, -33.011457], [-68.870715, -33.011901], [-68.870931, -33.011816]]]}}, {"type": "Feature", "properties": {"idrenabap": "4374", "nombreBarr": "Alto Agrelo", "provincia": "MENDOZA", "departamento": "LUJAN DE CUYO", "localidad": ""}, "geometry": {"type": "Polygon", "coordinates": [[[-68.970631, -33.096957], [-68.969737, -33.090959], [-68.967033, -33.091589], [-68.968334, -33.104215], [-68.969899, -33.10395], [-68.969289, -33.096997], [-68.970631, -33.096957]]]}}, {"type": "Feature", "properties": {"idrenabap": "4380", "nombreBarr": "Cuadro Estación Cacheuta", "provincia": "MENDOZA", "departamento": "LUJAN DE CUYO", "localidad": ""}, "geometry": {"type": "Polygon", "coordinates": [[[-69.117368, -33.015713], [-69.117817, -33.015876], [-69.118064, -33.015148], [-69.117713, -33.015023], [-69.117324, -33.015589], [-69.117368, -33.015713]]]}}, {"type": "Feature", "properties": {"idrenabap": "4375", "nombreBarr": "Villa Remanente Cinco de Julio", "provincia": "MENDOZA", "departamento": "LUJAN DE CUYO", "localidad": ""}, "geometry": {"type": "Polygon", "coordinates": [[[-68.884894, -33.024405], [-68.884815, -33.024784], [-68.88511, -33.024902], [-68.886641, -33.025985], [-68.886804, -33.025862], [-68.884894, -33.024405]]]}}, {"type": "Feature", "properties": {"idrenabap": "4373", "nombreBarr": "Cuadro Estación Agrelo", "provincia": "MENDOZA", "departamento": "LUJAN DE CUYO", "localidad": ""}, "geometry": {"type": "Polygon", "coordinates": [[[-68.885358, -33.118721], [-68.88377, -33.118813], [-68.88379, -33.120284], [-68.88439, -33.126154], [-68.884654, -33.127473], [-68.884916, -33.127439], [-68.885096, -33.129008], [-68.885472, -33.129004], [-68.885417, -33.125982], [-68.885305, -33.123349], [-68.885587, -33.123355], [-68.885542, -33.122492], [-68.885358, -33.118721]]]}}, {"type": "Feature", "properties": {"idrenabap": "3384", "nombreBarr": "Sin Nombre", "provincia": "MENDOZA", "departamento": "LUJAN DE CUYO", "localidad": "Lujan De Cuyo"}, "geometry": {"type": "Polygon", "coordinates": [[[-68.903026, -32.99495], [-68.902665, -32.994719], [-68.902222, -32.994558], [-68.901898, -32.994329], [-68.901528, -32.994022], [-68.901233, -32.994274], [-68.901336, -32.994545], [-68.901458, -32.994706], [-68.901797, -32.995042], [-68.902223, -32.995193], [-68.90256, -32.995398], [-68.903026, -32.99495]]]}}, {"type": "Feature", "properties": {"idrenabap": "3380", "nombreBarr": "San Gabriel", "provincia": "MENDOZA", "departamento": "LUJAN DE CUYO", "localidad": "Lujan De Cuyo"}, "geometry": {"type": "Polygon", "coordinates": [[[-68.938255, -33.014691], [-68.93772, -33.014566], [-68.937406, -33.015238], [-68.937857, -33.015365], [-68.938255, -33.014691]]]}}, {"type": "Feature", "properties": {"idrenabap": "3381", "nombreBarr": "Jesús de Nazaret", "provincia": "MENDOZA", "departamento": "LUJAN DE CUYO", "localidad": "Lujan De Cuyo"}, "geometry": {"type": "Polygon", "coordinates": [[[-68.888044, -33.052651], [-68.88773, -33.051365], [-68.886964, -33.051105], [-68.887121, -33.052672], [-68.888044, -33.052651]]]}}, {"type": "Feature", "properties": {"idrenabap": "3382", "nombreBarr": "Estacion Cuadro", "provincia": "MENDOZA", "departamento": "LUJAN DE CUYO", "localidad": "Lujan De Cuyo"}, "geometry": {"type": "Polygon", "coordinates": [[[-68.882841, -33.073821], [-68.88196, -33.073799], [-68.882165, -33.077096], [-68.882039, -33.077103], [-68.882168, -33.079304], [-68.883074, -33.079268], [-68.882841, -33.073821]]]}}, {"type": "Feature", "properties": {"idrenabap": "3336", "nombreBarr": "Aeroclub", "provincia": "MENDOZA", "departamento": "LUJAN DE CUYO", "localidad": "Lujan De Cuyo"}, "geometry": {"type": "Polygon", "coordinates": [[[-68.876701, -32.96645], [-68.876242, -32.965737], [-68.87321, -32.963552], [-68.872067, -32.963699], [-68.871395, -32.96386], [-68.872511, -32.964443], [-68.873746, -32.965067], [-68.87426, -32.965587], [-68.874887, -32.966222], [-68.875811, -32.966874], [-68.876701, -32.96645]]]}}, {"type": "Feature", "properties": {"idrenabap": "3337", "nombreBarr": "Juan XXIII", "provincia": "MENDOZA", "departamento": "LUJAN DE CUYO", "localidad": "Lujan De Cuyo"}, "geometry": {"type": "Polygon", "coordinates": [[[-68.880227, -33.045182], [-68.880083, -33.044674], [-68.879962, -33.044464], [-68.877857, -33.043879], [-68.877218, -33.044015], [-68.877107, -33.044325], [-68.876754, -33.045249], [-68.880302, -33.045986], [-68.880227, -33.045182]]]}}, {"type": "Feature", "properties": {"idrenabap": "3338", "nombreBarr": "Barrio San Cayetano", "provincia": "MENDOZA", "departamento": "LUJAN DE CUYO", "localidad": "Lujan De Cuyo"}, "geometry": {"type": "Polygon", "coordinates": [[[-68.873406, -33.044544], [-68.873405, -33.044012], [-68.873238, -33.043546], [-68.872918, -33.042426], [-68.872502, -33.042494], [-68.871603, -33.042551], [-68.870067, -33.042479], [-68.869455, -33.042396], [-68.869482, -33.042915], [-68.871168, -33.042934], [-68.871112, -33.04416], [-68.871069, -33.044217], [-68.87109, -33.044407], [-68.871687, -33.044338], [-68.872503, -33.044401], [-68.873406, -33.044544]]]}}, {"type": "Feature", "properties": {"idrenabap": "3339", "nombreBarr": "Balcarce", "provincia": "MENDOZA", "departamento": "LUJAN DE CUYO", "localidad": "Lujan De Cuyo"}, "geometry": {"type": "Polygon", "coordinates": [[[-68.874063, -33.041113], [-68.874284, -33.040997], [-68.874065, -33.040787], [-68.873925, -33.040635], [-68.873433, -33.040399], [-68.872969, -33.040371], [-68.872219, -33.040171], [-68.872103, -33.040603], [-68.872187, -33.040732], [-68.872545, -33.040873], [-68.872811, -33.040943], [-68.872848, -33.040972], [-68.873444, -33.041007], [-68.873794, -33.0411], [-68.874063, -33.041113]]]}}, {"type": "Feature", "properties": {"idrenabap": "3340", "nombreBarr": "Costa Canal", "provincia": "MENDOZA", "departamento": "LUJAN DE CUYO", "localidad": "Lujan De Cuyo"}, "geometry": {"type": "Polygon", "coordinates": [[[-68.872146, -33.039894], [-68.872043, -33.039645], [-68.871851, -33.039568], [-68.870773, -33.039568], [-68.870337, -33.039665], [-68.870215, -33.039701], [-68.869822, -33.039816], [-68.869747, -33.039847], [-68.869528, -33.039917], [-68.869221, -33.040038], [-68.869086, -33.040127], [-68.869149, -33.040271], [-68.869591, -33.04006], [-68.869921, -33.039948], [-68.870664, -33.039793], [-68.871194, -33.039768], [-68.871695, -33.039842], [-68.872007, -33.039854], [-68.872146, -33.039894]]]}}, {"type": "Feature", "properties": {"idrenabap": "3341", "nombreBarr": "Sin Nombre", "provincia": "MENDOZA", "departamento": "LUJAN DE CUYO", "localidad": "Lujan De Cuyo"}, "geometry": {"type": "Polygon", "coordinates": [[[-68.882655, -33.021501], [-68.88161, -33.020833], [-68.880529, -33.020009], [-68.880355, -33.01994], [-68.880166, -33.019726], [-68.879705, -33.019989], [-68.880832, -33.020814], [-68.882142, -33.021655], [-68.88223, -33.02162], [-68.882498, -33.021757], [-68.882665, -33.021917], [-68.882962, -33.021793], [-68.882655, -33.021501]]]}}, {"type": "Feature", "properties": {"idrenabap": "3342", "nombreBarr": "Sin Nombre", "provincia": "MENDOZA", "departamento": "LUJAN DE CUYO", "localidad": "Lujan De Cuyo"}, "geometry": {"type": "Polygon", "coordinates": [[[-68.878301, -33.021624], [-68.878396, -33.021582], [-68.878049, -33.020712], [-68.877971, -33.020683], [-68.877899, -33.020614], [-68.877615, -33.020497], [-68.877447, -33.020472], [-68.877214, -33.020705], [-68.877672, -33.021718], [-68.878301, -33.021624]]]}}, {"type": "Feature", "properties": {"idrenabap": "3343", "nombreBarr": "Sin Nombre", "provincia": "MENDOZA", "departamento": "LUJAN DE CUYO", "localidad": "Lujan De Cuyo"}, "geometry": {"type": "Polygon", "coordinates": [[[-68.877552, -33.019779], [-68.877666, -33.020163], [-68.87932, -33.019914], [-68.878857, -33.019462], [-68.877552, -33.019779]]]}}, {"type": "Feature", "properties": {"idrenabap": "3344", "nombreBarr": "Los Aromos", "provincia": "MENDOZA", "departamento": "LUJAN DE CUYO", "localidad": "Lujan De Cuyo"}, "geometry": {"type": "Polygon", "coordinates": [[[-68.877899, -33.018301], [-68.878288, -33.018081], [-68.87803, -33.017734], [-68.877854, -33.017568], [-68.877619, -33.017425], [-68.877509, -33.01748], [-68.877288, -33.017601], [-68.877152, -33.017643], [-68.8767, -33.017186], [-68.876431, -33.017272], [-68.8767, -33.017903], [-68.877235, -33.01763], [-68.877899, -33.018301]]]}}, {"type": "Feature", "properties": {"idrenabap": "3345", "nombreBarr": "Diamante", "provincia": "MENDOZA", "departamento": "LUJAN DE CUYO", "localidad": "Lujan De Cuyo"}, "geometry": {"type": "Polygon", "coordinates": [[[-68.876946, -33.016196], [-68.876378, -33.015544], [-68.875654, -33.014928], [-68.874887, -33.014293], [-68.87339, -33.013239], [-68.873061, -33.012996], [-68.872885, -33.013135], [-68.8727, -33.012995], [-68.872099, -33.012636], [-68.871915, -33.012771], [-68.872524, -33.0132], [-68.872677, -33.013061], [-68.872858, -33.013177], [-68.873036, -33.013299], [-68.87292, -33.013427], [-68.873724, -33.013978], [-68.874415, -33.014408], [-68.874693, -33.014725], [-68.875167, -33.015108], [-68.875455, -33.015403], [-68.875747, -33.015906], [-68.876137, -33.016468], [-68.876946, -33.016196]]]}}, {"type": "Feature", "properties": {"idrenabap": "3346", "nombreBarr": "Parque Costero", "provincia": "MENDOZA", "departamento": "LUJAN DE CUYO", "localidad": "Lujan De Cuyo"}, "geometry": {"type": "Polygon", "coordinates": [[[-68.886283, -33.045159], [-68.886414, -33.045116], [-68.886625, -33.044974], [-68.886656, -33.044768], [-68.887517, -33.04476], [-68.887509, -33.044245], [-68.887699, -33.044233], [-68.887568, -33.042183], [-68.886511, -33.042147], [-68.886613, -33.044753], [-68.886245, -33.044773], [-68.886283, -33.045159]]]}}, {"type": "Feature", "properties": {"idrenabap": "3361", "nombreBarr": "Buenos Vecinos", "provincia": "MENDOZA", "departamento": "LUJAN DE CUYO", "localidad": "Lujan De Cuyo"}, "geometry": {"type": "Polygon", "coordinates": [[[-68.899123, -32.992863], [-68.897885, -32.993667], [-68.898749, -32.994223], [-68.89867, -32.994305], [-68.898686, -32.994371], [-68.898405, -32.994581], [-68.898866, -32.994784], [-68.898817, -32.994849], [-68.899355, -32.995198], [-68.899514, -32.994865], [-68.8991, -32.99456], [-68.899344, -32.994398], [-68.89942, -32.994493], [-68.900021, -32.994224], [-68.900074, -32.994141], [-68.899123, -32.992863]]]}}, {"type": "Feature", "properties": {"idrenabap": "3362", "nombreBarr": "Valle Encantado", "provincia": "MENDOZA", "departamento": "LUJAN DE CUYO", "localidad": "Lujan De Cuyo"}, "geometry": {"type": "Polygon", "coordinates": [[[-68.883026, -32.976443], [-68.882472, -32.975708], [-68.88054, -32.975917], [-68.883715, -32.979522], [-68.883921, -32.979367], [-68.883663, -32.978414], [-68.883593, -32.978063], [-68.883256, -32.978158], [-68.883164, -32.977907], [-68.883585, -32.977714], [-68.883317, -32.976993], [-68.883026, -32.976443]]]}}, {"type": "Feature", "properties": {"idrenabap": "3467", "nombreBarr": "Costanera Sur", "provincia": "MENDOZA", "departamento": "LUJAN DE CUYO", "localidad": "Lujan De Cuyo"}, "geometry": {"type": "MultiPolygon", "coordinates": [[[[-68.878917, -33.042832], [-68.878916, -33.042836], [-68.879704, -33.043129], [-68.87939, -33.043324], [-68.879604, -33.043489], [-68.879941, -33.043875], [-68.881073, -33.043894], [-68.880975, -33.042708], [-68.880437, -33.042699], [-68.880447, -33.043181], [-68.879652, -33.04309], [-68.878917, -33.042832]]], [[[-68.879666, -33.041059], [-68.878951, -33.040981], [-68.876897, -33.040919], [-68.876118, -33.041038], [-68.875899, -33.041137], [-68.875186, -33.041086], [-68.875082, -33.041487], [-68.877601, -33.042249], [-68.878942, -33.042686], [-68.878917, -33.042832], [-68.878959, -33.042674], [-68.878271, -33.042447], [-68.877714, -33.042249], [-68.877706, -33.041462], [-68.88009, -33.041534], [-68.880094, -33.041942], [-68.880977, -33.041964], [-68.880992, -33.041172], [-68.879666, -33.041059]]]]}}, {"type": "Feature", "properties": {"idrenabap": "3443", "nombreBarr": "Quintana Y San Martin", "provincia": "MENDOZA", "departamento": "LUJAN DE CUYO", "localidad": "Lujan De Cuyo"}, "geometry": {"type": "Polygon", "coordinates": [[[-68.881394, -33.050521], [-68.880939, -33.050522], [-68.880922, -33.050206], [-68.880646, -33.050187], [-68.880758, -33.052321], [-68.881053, -33.052307], [-68.881479, -33.052251], [-68.881443, -33.051356], [-68.881394, -33.050521]]]}}, {"type": "Feature", "properties": {"idrenabap": "3463", "nombreBarr": "Patrono Santiago", "provincia": "MENDOZA", "departamento": "LUJAN DE CUYO", "localidad": "Lujan De Cuyo"}, "geometry": {"type": "Polygon", "coordinates": [[[-68.876756, -33.044643], [-68.876809, -33.044539], [-68.876954, -33.044599], [-68.877094, -33.044323], [-68.87723, -33.04394], [-68.876781, -33.04359], [-68.876839, -33.043354], [-68.87676, -33.043242], [-68.876537, -33.043204], [-68.87641, -33.042963], [-68.876342, -33.042941], [-68.876291, -33.043018], [-68.876217, -33.043047], [-68.8762, -33.043151], [-68.876235, -33.043176], [-68.876204, -33.04331], [-68.876134, -33.04327], [-68.876089, -33.0432], [-68.876002, -33.043198], [-68.876024, -33.043135], [-68.876044, -33.042991], [-68.875852, -33.042824], [-68.875456, -33.042713], [-68.875452, -33.042647], [-68.875289, -33.042605], [-68.874998, -33.042608], [-68.874784, -33.042644], [-68.87469, -33.042682], [-68.874622, -33.042739], [-68.874526, -33.042872], [-68.874458, -33.042945], [-68.874304, -33.042787], [-68.873998, -33.042538], [-68.87366, -33.042297], [-68.872961, -33.042215], [-68.873257, -33.043563], [-68.873587, -33.043551], [-68.873557, -33.043655], [-68.873687, -33.043655], [-68.873867, -33.043725], [-68.873958, -33.043655], [-68.874065, -33.043729], [-68.874208, -33.043582], [-68.874354, -33.043701], [-68.874588, -33.043565], [-68.87472, -33.043649], [-68.875002, -33.043903], [-68.875513, -33.043484], [-68.87602, -33.043741], [-68.876012, -33.043797], [-68.875693, -33.044114], [-68.875936, -33.044299], [-68.876073, -33.044164], [-68.876756, -33.044643]]]}}, {"type": "Feature", "properties": {"idrenabap": "3469", "nombreBarr": "Virgen De Lourdes", "provincia": "MENDOZA", "departamento": "LUJAN DE CUYO", "localidad": "Lujan De Cuyo"}, "geometry": {"type": "Polygon", "coordinates": [[[-68.892952, -33.052323], [-68.893932, -33.052388], [-68.89381, -33.051671], [-68.893189, -33.051235], [-68.891495, -33.050768], [-68.888522, -33.050078], [-68.88843, -33.050532], [-68.889592, -33.051007], [-68.889516, -33.051494], [-68.889383, -33.051794], [-68.888538, -33.051654], [-68.887875, -33.0515], [-68.887892, -33.051642], [-68.887977, -33.052052], [-68.888337, -33.052058], [-68.888577, -33.052186], [-68.890284, -33.052296], [-68.892952, -33.052323]]]}}, {"type": "Feature", "properties": {"idrenabap": "3451", "nombreBarr": "Francisco", "provincia": "MENDOZA", "departamento": "LUJAN DE CUYO", "localidad": "Lujan De Cuyo"}, "geometry": {"type": "Polygon", "coordinates": [[[-68.881417, -33.080427], [-68.881512, -33.080761], [-68.882184, -33.080769], [-68.88243, -33.081863], [-68.883606, -33.081561], [-68.884353, -33.080281], [-68.881417, -33.080427]]]}}, {"type": "Feature", "properties": {"idrenabap": "3288", "nombreBarr": "Cuadro Estacion 1085", "provincia": "MENDOZA", "departamento": "LUJAN DE CUYO", "localidad": "Lujan De Cuyo"}, "geometry": {"type": "Polygon", "coordinates": [[[-68.808129, -33.003046], [-68.808647, -33.003264], [-68.810506, -33.000205], [-68.811202, -33.000159], [-68.81139, -32.999813], [-68.811264, -32.99945], [-68.811833, -32.99928], [-68.811653, -32.998798], [-68.811963, -32.998584], [-68.811776, -32.998295], [-68.811452, -32.998424], [-68.811222, -32.998172], [-68.810755, -32.998915], [-68.81026, -32.999594], [-68.808129, -33.003046]]]}}, {"type": "Feature", "properties": {"idrenabap": "3298", "nombreBarr": "Los Cerros", "provincia": "MENDOZA", "departamento": "LUJAN DE CUYO", "localidad": "Lujan De Cuyo"}, "geometry": {"type": "Polygon", "coordinates": [[[-68.908105, -32.992512], [-68.907961, -32.992522], [-68.907818, -32.992591], [-68.907701, -32.992777], [-68.907647, -32.992842], [-68.907553, -32.992842], [-68.907489, -32.993029], [-68.907504, -32.993324], [-68.907517, -32.993424], [-68.907626, -32.993426], [-68.907672, -32.993488], [-68.907673, -32.993549], [-68.907675, -32.993704], [-68.907755, -32.993735], [-68.908234, -32.993725], [-68.908273, -32.993652], [-68.908498, -32.993632], [-68.908606, -32.99342], [-68.90861, -32.993291], [-68.908544, -32.993234], [-68.908575, -32.993159], [-68.908345, -32.992951], [-68.908267, -32.992792], [-68.908105, -32.992512]]]}}, {"type": "Feature", "properties": {"idrenabap": "3299", "nombreBarr": "Virgen De Guadalupe", "provincia": "MENDOZA", "departamento": "LUJAN DE CUYO", "localidad": "Lujan De Cuyo"}, "geometry": {"type": "Polygon", "coordinates": [[[-68.908577, -32.999328], [-68.90835, -32.999575], [-68.911251, -33.001723], [-68.911543, -33.001713], [-68.911799, -33.001564], [-68.908577, -32.999328]]]}}]}